     2.10           NAVIGATION                              RINEX VERSION / TYPE
fic2rin                                 06/25/2008 02:43:37 PGM / RUN BY / DATE
                                                            END OF HEADER
29 08  6 24 13 59 28.0 -.423793680966D-04  .227373675443D-12  .000000000000D+00
     .580000000000D+02  .205312500000D+02  .430696511667D-08 -.728221268379D+00
     .107847154140D-05  .375878927298D-02  .106990337372D-04  .515365026855D+04
     .223168000000D+06 -.726431608200D-07 -.169005286441D+01  .149011611938D-06
     .959354735284D+00  .173906250000D+03 -.140263730511D+01 -.791818696713D-08
     .423589072757D-09  .100000000000D+01  .148500000000D+04  .000000000000D+00
     .240000000000D+01  .000000000000D+00 -.884756445885D-08  .580000000000D+02
     .218226000000D+06  .400000000000D+01
 4 08  6 24 13 59 44.0 -.987760722637D-04 -.932232069317D-11  .000000000000D+00
     .140000000000D+02  .269687500000D+02  .520843123778D-08 -.157983873024D+01
     .111013650894D-05  .805721082725D-02  .530108809471D-05  .515379280281D+04
     .223184000000D+06  .689178705215D-07 -.653880311025D+00 -.745058059692D-07
     .942496393569D+00  .261531250000D+03  .379734637312D+00 -.841320758672D-08
     .232509684962D-09  .100000000000D+01  .148500000000D+04  .000000000000D+00
     .240000000000D+01  .000000000000D+00 -.605359673500D-08  .140000000000D+02
     .218826000000D+06  .400000000000D+01
20 08  6 24 13 59 44.0  .111417379230D-03 -.795807864051D-12  .000000000000D+00
     .800000000000D+01 -.102812500000D+02  .502092342733D-08 -.195653728881D+01
    -.422820448875D-06  .364425370935D-02  .776350498199D-05  .515354433632D+04
     .223184000000D+06  .819563865662D-07  .365760264503D+00  .149011611938D-07
     .947193421219D+00  .223437500000D+03  .134979607503D+01 -.824962934446D-08
    -.268939773850D-09  .100000000000D+01  .148500000000D+04  .000000000000D+00
     .240000000000D+01  .000000000000D+00 -.651925802231D-08  .800000000000D+01
     .220956000000D+06  .400000000000D+01
29 08  6 24 15 59 28.0 -.423775054514D-04  .227373675443D-12  .000000000000D+00
     .680000000000D+02  .169687500000D+02  .437446792843D-08  .321833438386D+00
     .888481736183D-06  .375712942332D-02  .101551413536D-04  .515364698601D+04
     .230368000000D+06 -.856816768646D-07 -.169010852698D+01 -.150874257088D-06
     .959356938439D+00  .186093750000D+03 -.140249760667D+01 -.791318675885D-08
     .175007289756D-09  .100000000000D+01  .148500000000D+04  .000000000000D+00
     .240000000000D+01  .000000000000D+00 -.884756445885D-08  .680000000000D+02
     .223206000000D+06  .400000000000D+01
 4 08  6 24 15 59 44.0 -.988431274891D-04 -.932232069317D-11  .000000000000D+00
     .360000000000D+02  .310000000000D+02  .515057168484D-08 -.529787000509D+00
     .186637043953D-05  .805677124299D-02  .552833080292D-05  .515379157257D+04
     .230384000000D+06  .111758708954D-06 -.653940770504D+00  .502914190292D-07
     .942497481980D+00  .258500000000D+03  .379795640996D+00 -.851642617191D-08
     .171078554680D-09  .100000000000D+01  .148500000000D+04  .000000000000D+00
     .240000000000D+01  .000000000000D+00 -.605359673500D-08  .360000000000D+02
     .223206000000D+06  .400000000000D+01
 5 08  6 24 15 59 44.0 -.382113736123D-03  .117097442853D-10  .000000000000D+00
     .800000000000D+01 -.772812500000D+02  .501092301077D-08 -.887426932985D+00
    -.406056642532D-05  .889989279676D-02  .703148543835D-05  .515357335472D+04
     .230384000000D+06 -.102445483208D-06 -.284967649850D+01  .163912773132D-06
     .943157636930D+00  .232312500000D+03  .123142491299D+01 -.847285292833D-08
    -.308941440080D-09  .100000000000D+01  .148500000000D+04  .000000000000D+00
     .240000000000D+01  .000000000000D+00 -.419095158577D-08  .800000000000D+01
     .223206000000D+06  .400000000000D+01
20 08  6 24 15 59 44.0  .111411325634D-03 -.795807864051D-12  .000000000000D+00
     .900000000000D+01 -.103750000000D+02  .502342353147D-08 -.906472403060D+00
    -.407919287682D-06  .364408548921D-02  .829994678497D-05  .515354294205D+04
     .230384000000D+06  .931322574615D-08  .365700637425D+00  .484287738800D-07
     .947191105420D+00  .217968750000D+03  .134999513137D+01 -.832677541505D-08
    -.277511559470D-09  .100000000000D+01  .148500000000D+04  .000000000000D+00
     .240000000000D+01  .000000000000D+00 -.651925802231D-08  .900000000000D+01
     .223206000000D+06  .400000000000D+01
 2 08  6 24 16  0  0.0  .205355230719D-03 -.125055521494D-11  .000000000000D+00
     .480000000000D+02  .336875000000D+02  .504163857591D-08  .306268029668D+01
     .187754631042D-05  .878490752075D-02  .548921525478D-05  .515374204636D+04
     .230400000000D+06 -.111758708954D-06 -.672766045075D+00  .137835741043D-06
     .943186289643D+00  .257406250000D+03  .258962403043D+01 -.827284459718D-08
     .167149819604D-09  .100000000000D+01  .148500000000D+04  .000000000000D+00
     .240000000000D+01  .000000000000D+00 -.172294676304D-07  .480000000000D+02
     .223206000000D+06  .400000000000D+01
 3 08  6 24 16  0  0.0  .246495939791D-03  .511590769747D-11  .000000000000D+00
     .140000000000D+02 -.215625000000D+01  .499699385914D-08  .267350905070D+01
    -.143423676491D-06  .107065654593D-01  .112969428301D-04  .515369160843D+04
     .230400000000D+06  .540167093277D-07 -.181713267537D+01 -.126659870148D-06
     .925623361231D+00  .140500000000D+03  .818307244364D+00 -.809640867649D-08
     .275011455331D-09  .100000000000D+01  .148500000000D+04  .000000000000D+00
     .340000000000D+01  .000000000000D+00 -.419095158577D-08  .140000000000D+02
     .223206000000D+06  .400000000000D+01
 6 08  6 24 16  0  0.0  .152762513608D-03  .545696821064D-11  .000000000000D+00
     .370000000000D+02  .153437500000D+02  .491520473801D-08 -.949263205994D+00
     .899657607079D-06  .593089638278D-02  .109057873487D-04  .515373325348D+04
     .230400000000D+06 -.372529029846D-08 -.175225291248D+01  .134110450745D-06
     .933154454726D+00  .156531250000D+03 -.165077710398D+01 -.829927426951D-08
     .341442793891D-09  .100000000000D+01  .148500000000D+04  .000000000000D+00
     .240000000000D+01  .000000000000D+00 -.465661287308D-08  .370000000000D+02
     .223206000000D+06  .400000000000D+01
 7 08  6 24 16  0  0.0 -.150906853378D-04  .670752342558D-11  .000000000000D+00
     .220000000000D+02  .312500000000D-01  .482984403953D-08  .144347958455D+01
     .186264514923D-08  .181662524119D-02  .363215804100D-05  .515370878601D+04
     .230400000000D+06 -.149011611938D-07  .247850492635D+01 -.109896063805D-06
     .962797938273D+00  .305093750000D+03  .261891760445D+01 -.844713757147D-08
    -.446447167745D-10  .100000000000D+01  .148500000000D+04  .000000000000D+00
     .240000000000D+01  .000000000000D+00 -.107102096081D-07  .220000000000D+02
     .223206000000D+06  .400000000000D+01
 8 08  6 24 16  0  0.0 -.158901792020D-03 -.170530256582D-11  .000000000000D+00
     .115000000000D+03 -.837500000000D+01  .431732269096D-08  .602426083819D+00
    -.715255737305D-06  .102353559341D-01  .396929681301D-05  .515360224152D+04
     .230400000000D+06  .111758708954D-06  .253186719957D+01  .186264514923D-08
     .984007429916D+00  .309718750000D+03  .288370747086D+01 -.820962767823D-08
    -.900037490174D-10  .100000000000D+01  .148500000000D+04  .000000000000D+00
     .340000000000D+01  .000000000000D+00 -.372529029846D-08  .115000000000D+03
     .223206000000D+06  .400000000000D+01
 9 08  6 24 16  0  0.0  .224448740482D-05  .170530256582D-11  .000000000000D+00
     .550000000000D+02  .396875000000D+01  .469019536546D-08  .209089345388D+00
     .432133674622D-06  .200447819661D-01  .440701842308D-05  .515366253281D+04
     .230400000000D+06 -.240281224251D-06  .244203242418D+01  .726431608200D-07
     .971804827915D+00  .302093750000D+03  .141298375226D+01 -.866250368519D-08
    -.360729311538D-10  .100000000000D+01  .148500000000D+04  .000000000000D+00
     .340000000000D+01  .000000000000D+00 -.558793544769D-08  .550000000000D+02
     .223206000000D+06  .400000000000D+01
10 08  6 24 16  0  0.0 -.243308022618D-05 -.227373675443D-12  .000000000000D+00
     .260000000000D+02 -.825000000000D+01  .454733227178D-08 -.238928093242D+01
    -.752508640289D-06  .797703606077D-02  .817701220512D-05  .515365980339D+04
     .230400000000D+06  .465661287308D-07  .408777935310D+00 -.182539224625D-06
     .963577958878D+00  .224406250000D+03  .559928575478D+00 -.799819029959D-08
    -.176078762959D-09  .100000000000D+01  .148500000000D+04  .000000000000D+00
     .340000000000D+01  .000000000000D+00 -.232830643654D-08  .260000000000D+02
     .223206000000D+06  .400000000000D+01
11 08  6 24 16  0  0.0  .242595560849D-04 -.454747350886D-12  .000000000000D+00
     .320000000000D+02  .415000000000D+02  .636562229658D-08  .984305047433D+00
     .211037695408D-05  .810387928504D-02  .588968396187D-05  .515363236618D+04
     .230400000000D+06 -.689178705215D-07 -.855837423144D+00  .577419996262D-07
     .890850076441D+00  .227781250000D+03  .594119627650D+00 -.909787896318D-08
     .155006456641D-09  .100000000000D+01  .148500000000D+04  .000000000000D+00
     .240000000000D+01  .000000000000D+00 -.116415321827D-07  .320000000000D+02
     .223206000000D+06  .400000000000D+01
12 08  6 24 16  0  0.0 -.358115881681D-03  .454747350886D-12  .000000000000D+00
     .790000000000D+02 -.775625000000D+02  .441125517506D-08  .144161706893D+01
    -.418722629547D-05  .337698531803D-02  .753439962864D-05  .515358821678D+04
     .230400000000D+06  .484287738800D-07 -.275568211158D+01 -.931322574615D-08
     .964386098232D+00  .232187500000D+03 -.926710092852D+00 -.802819154926D-08
    -.296440919383D-09  .100000000000D+01  .148500000000D+04  .000000000000D+00
     .240000000000D+01  .000000000000D+00 -.116415321827D-07  .790000000000D+02
     .223206000000D+06  .400000000000D+01
